{
  "norad_id": 66848,
  "name": "STARLINK-36091",
  "history": [
    {
      "epoch": "2026-03-28T17:31:28.636320Z",
      "apogee_km": 484.0422891342341,
      "perigee_km": 481.9198708673666,
      "latitude_deg": -6.030629576215334e-06,
      "longitude_deg": 147.26542909053111,
      "height_km": 482.99898403285863,
      "semi_major_axis_km": 6861.118080000801,
      "eccentricity": 0.00015467,
      "inclination_deg": 43.0034,
      "raan_deg": 236.2812,
      "arg_perigee_deg": 256.8863,
      "mean_anomaly_deg": 103.1816,
      "mean_motion_rev_day": 15.27602715
    }
  ]
}