{"fetched_at":"2026-03-29T16:36:15Z","count":15609,"tles":[{"name":"STARLINK-36091","line1":"1 66848U 25281A   26087.73019255  .00023498  00000+0  86009-3 0  9996","line2":"2 66848  43.0034 236.2812 0001546 256.8863 103.1816 15.27602715 17774","category":"Starlink"}]}